IRIDIUM 64 [+]          
1 25287U 98021C   16268.26880494  .00000170  00000-0  53631-4 0  9998
2 25287  86.3988 335.1295 0002293  91.5406 268.6052 14.34224642966885
IRIDIUM 65 [+]          
1 25288U 98021D   16268.27514913  .00000169  00000-0  53112-4 0  9992
2 25288  86.3986 335.0350 0002410  97.5887 262.5582 14.34224505966907
IRIDIUM 66 [+]          
1 25289U 98021E   16268.29451666  .00000008  00000-0 -41538-5 0  9993
2 25289  86.3985 334.9325 0002302  98.3851 328.9214 14.34223915966900
IRIDIUM 67 [+]          
1 25290U 98021F   16268.28783307  .00000008  00000-0 -41365-5 0  9992
2 25290  86.3987 335.0677 0002264  95.8224 264.3229 14.34224245966916
IRIDIUM 68 [+]          
1 25291U 98021G   16268.29415460  .00000167  00000-0  52450-4 0  9997
2 25291  86.3989 335.1788 0002320  94.4961 265.6500 14.34223570966881
IRIDIUM 69 [-]          
1 25319U 98026A   16268.34633612  .00000109  00000-0  29187-4 0  9997
2 25319  86.4039 357.5651 0004063  82.5478 277.6182 14.38615022964814
IRIDIUM 71 [-]          
1 25320U 98026B   16268.27383098  .00000132  00000-0  36227-4 0  9990
2 25320  86.4020 353.6151 0003959 115.3419 244.8190 14.39030086965224
IRIDIUM 70 [+]          
1 25342U 98032A   16268.26154471  .00000009  00000-0 -40266-5 0  9994
2 25342  86.3994 335.4217 0002256  98.3894 322.2511 14.34223882960983
IRIDIUM 72 [+]          
1 25343U 98032B   16268.23709252  .00000172  00000-0  54308-4 0  9996
2 25343  86.3986 335.0610 0002316  96.5141 263.6318 14.34224625960989
IRIDIUM 73 [-]          
1 25344U 98032C   16268.20446672  .00000142  00000-0  32173-4 0  9991
2 25344  86.4423 315.3531 0001785 105.8413 254.2988 14.48970038969030
IRIDIUM 74 [S]          
1 25345U 98032D   16268.27390377  .00000180  00000-0  47939-4 0  9997
2 25345  86.4499 335.3888 0002372  90.8629 332.8144 14.42957261964406
IRIDIUM 75 [+]          
1 25346U 98032E   16268.25508363  .00000009  00000-0 -39991-5 0  9993
2 25346  86.3991 335.2965 0002241  96.0387 324.2068 14.34224049961557
IRIDIUM 3 [+]           
1 25431U 98048A   16268.38017404  .00000192  00000-0  61346-4 0  9990
2 25431  86.4010   6.8318 0002307  99.6275 326.7414 14.34224961947511
IRIDIUM 76 [+]          
1 25432U 98048B   16268.46449637  .00000193  00000-0  61916-4 0  9991
2 25432  86.4008   6.5597 0002130  99.4701 303.8094 14.34225103947509
IRIDIUM 82 [+]          
1 25467U 98051A   16268.14629015  .00000164  00000-0  51535-4 0  9992
2 25467  86.3945 133.4199 0002359  81.4335 278.7128 14.34224383948486
IRIDIUM 81 [+]          
1 25468U 98051B   16268.13995841  .00000126  00000-0  37859-4 0  9996
2 25468  86.3964 133.0250 0002026  83.4929 276.6497 14.34221581944708
IRIDIUM 80 [+]          
1 25469U 98051C   16268.14255079  .00000117  00000-0  34616-4 0  9998
2 25469  86.3969 133.2980 0001995  80.6974  31.0254 14.34220923944702
IRIDIUM 77 [+]          
1 25471U 98051E   16268.14895589  .00000111  00000-0  32489-4 0  9997
2 25471  86.3958 132.8899 0002039  86.6749  25.3088 14.34220685949906
IRIDIUM 2 [-]           
1 25527U 98066A   16268.33535775  .00002473  00000-0  12805-3 0  9996
2 25527  85.5345 189.0571 0009426   3.6795 356.4512 15.15663274977598
IRIDIUM 86 [+]          
1 25528U 98066B   16268.50444184 -.00000030  00000-0 -17775-4 0  9990
2 25528  86.3914 100.9055 0002068  88.3879 271.7554 14.34216237941282
IRIDIUM 84 [+]          
1 25530U 98066D   16268.46644948 -.00000022  00000-0 -14942-4 0  9992
2 25530  86.3916 101.0819 0001936  84.1708 275.9709 14.34219883938919
IRIDIUM 83 [+]          
1 25531U 98066E   16268.49809672 -.00000023  00000-0 -15177-4 0  9995
2 25531  86.3919 101.1833 0001956  82.0114 278.1303 14.34216482936274
IRIDIUM 20 [+]          
1 25577U 98074A   16268.34830839  .00000205  00000-0  66126-4 0  9997
2 25577  86.4007   6.5332 0002268  97.4792 262.6662 14.34225347930331
IRIDIUM 11 [+]          
1 25578U 98074B   16268.37375494  .00000016  00000-0 -13085-5 0  9990
2 25578  86.4004   6.7264 0002289  95.9416 329.9613 14.34224638939305
IRIDIUM 14 [+]          
1 25777U 99032A   16268.27495544  .00000176  00000-0  55701-4 0  9990
2 25777  86.3989 335.1224 0002365  98.9220 325.5419 14.34226820916567
IRIDIUM 21 [+]          
1 25778U 99032B   16268.23074959  .00000178  00000-0  56471-4 0  9997
2 25778  86.3988 335.1632 0002136  94.9072 265.2367 14.34224664909992
IRIDIUM 91 [+]          
1 27372U 02005A   16268.48698464  .00000026  00000-0  23219-5 0  9990
2 27372  86.3990  38.8843 0002218  90.4045 312.4651 14.34212948773543
IRIDIUM 90 [S]          
1 27373U 02005B   16268.52412576 -.00000009  00000-0 -86887-5 0  9997
2 27373  86.4429 101.1468 0001980  88.3622 271.7805 14.42955842773040
IRIDIUM 94 [+]          
1 27374U 02005C   16268.39315674  .00000209  00000-0  67650-4 0  9990
2 27374  86.4009   6.8424 0002027 120.7648 307.2367 14.34217859777851
IRIDIUM 95 [+]          
1 27375U 02005D   16268.44697499  .00000137  00000-0  41796-4 0  9998
2 27375  86.3990  38.6828 0002069  97.3241 262.8190 14.34215559772822
IRIDIUM 96 [+]          
1 27376U 02005E   16268.42499036  .00000060  00000-0  14221-4 0  9992
2 27376  86.3959  70.2269 0000810  69.7454 290.3829 14.34213853778028
IRIDIUM 97 [+]          
1 27450U 02031A   16268.46316054  .00000162  00000-0  50858-4 0  9995
2 27450  86.3928  69.9838 0002150  86.4648 273.6793 14.34216885752141
IRIDIUM 98 [+]          
1 27451U 02031B   16268.19409404  .00000119  00000-0  35262-4 0  9992
2 27451  86.3961 133.4434 0002086  80.6348  35.1685 14.34220763753174
